SAUDISAT 5A             
1 43831U 18102A   26176.87414459  .00006250  00000+0  23014-3 0  9990
2 43831  97.3070 238.2876 0011308 102.6895 257.5609 15.28131747417002
SAUDISAT 5B             
1 43833U 18102C   26176.89154109  .00005902  00000+0  21579-3 0  9994
2 43833  97.3178 241.3901 0012019 104.5625 255.6949 15.28384202417124
GAOFEN-10R              
1 44622U 19066A   26176.85740578  .00001121  00000+0  14460-3 0  9998
2 44622  98.0499 130.4998 0007110 102.6625 257.5383 14.83017335363666
CARTOSAT-3              
1 44804U 19081A   26176.85117105  .00004666  00000+0  22449-3 0  9994
2 44804  97.4305 238.5793 0013152 120.2395 240.0143 15.19194152364781
GAOFEN-12 01            
1 44819U 19082A   26176.86612709  .00000378  00000+0  56003-4 0  9992
2 44819  97.8101 183.0164 0001951  61.1768 298.9640 14.80465016355378
CSG-1                   
1 44873U 19092A   26176.82771010  .00000424  00000+0  59839-4 0  9992
2 44873  97.8890   0.3051 0001450  89.9484 270.1895 14.82159930352756
NEMO-HD                 
1 46277U 20061F   26176.81045351  .00012504  00000+0  26916-3 0  9992
2 46277  97.1923 238.6765 0001867  74.9547 285.1909 15.44758020323316
SENTINEL-6A             
1 46984U 20086A   26176.82998828 -.00000074  00000+0 -55379-4 0  9998
2 46984  66.0407 117.1015 0007873 270.0530  89.9583 12.80929977261436
CAS500-1                
1 47932U 21022A   26176.88356135  .00006769  00000+0  31579-3 0  9998
2 47932  97.3896  71.9607 0003519 252.2736 107.8115 15.20165808292084
GAOFEN-12 02            
1 48079U 21026A   26176.87811735  .00000335  00000+0  50866-4 0  9990
2 48079  97.9923 175.0231 0004367 188.8492 171.2644 14.80302210283041
PLEIADES NEO 3          
1 48268U 21034A   26176.82977223  .00000661  00000+0  90610-4 0  9992
2 48268  97.8934 251.4721 0001451  87.8620 272.2759 14.81668923278935
PLEIADES NEO 4          
1 49070U 21073E   26176.79598639  .00000871  00000+0  11725-3 0  9995
2 49070  97.8934 251.4352 0001377  85.9629 274.1741 14.81678649262641
LANDSAT 9               
1 49260U 21088A   26176.64294262  .00000314  00000+0  79713-4 0  9995
2 49260  98.2278 246.7180 0001284  84.7783 275.3562 14.57102508252236
CSG-2                   
1 51444U 22008A   26176.86143785  .00000489  00000+0  67974-4 0  9991
2 51444  97.8891   0.3335 0001545  87.1093 273.0297 14.82149418237878
GAOFEN-12 03            
1 52912U 22069A   26176.84196361  .00000597  00000+0  85487-4 0  9994
2 52912  97.8274  64.4935 0002287  93.8576 266.2898 14.80045358215890
SWOT                    
1 54754U 22173A   26176.77712860  .00000035  00000+0  25575-4 0  9995
2 54754  77.6103  23.7136 0000284  87.0945 273.0239 14.00170582180351
GAOFEN-12 04            
1 57654U 23123A   26176.85773627  .00001564  00000+0  21489-3 0  9997
2 57654  97.9115  94.7506 0003982  89.7692 270.3976 14.79741839153911
PARS 1                  
1 59065U 24039Q   26176.85933654  .00012987  00000+0  26835-3 0  9991
2 59065  97.4820 158.0528 0011516  86.2424 274.0142 15.45895958129984
RESURS-P 4              
1 59371U 24061A   26176.88407809  .00003372  00000+0  11100-3 0  9994
2 59371  97.2749 124.6312 0002741 116.8415 243.3107 15.32177371125098
LEGION 1                
1 59625U 24081A   26176.80373418  .00003878  00000+0  20109-3 0  9998
2 59625  97.5019 254.5686 0008672 347.8154  12.2868 15.16721062118841
LEGION 2                
1 59626U 24081B   26176.83383662  .00004372  00000+0  22635-3 0  9990
2 59626  97.5019 254.6957 0010088 310.8345  49.2012 15.16698552118859
ALOS-4 (DAICHI-4)       
1 60182U 24123A   26176.40973435  .00001770  00000+0  24389-3 0  9999
2 60182  97.9216 273.4677 0001583  95.5508 264.5885 14.79472317107098
LEGION 3                
1 60452U 24146A   26176.82860973  .00004322  00000+0  23383-3 0  9991
2 60452  45.0026 344.2082 0008713 218.4647 141.5612 15.16103207103336
LEGION 4                
1 60453U 24146B   26176.83177119  .00004078  00000+0  22135-3 0  9998
2 60453  45.0017  76.1012 0012802 355.0939   4.9812 15.16094132102189
SENTINEL-2C             
1 60989U 24157A   26176.70400723  .00000088  00000+0  50302-4 0  9995
2 60989  98.5691 251.3657 0000944  87.6230 272.5061 14.30819964 94207
IONOSFERA-M 1           
1 61735U 24199A   26176.84387683  .00000053  00000+0  43444-4 0  9996
2 61735  98.7165  49.9243 0002148  99.0071 261.1350 14.22755821128930
IONOSFERA-M 2           
1 61736U 24199B   26176.87815095  .00000049  00000+0  41678-4 0  9995
2 61736  98.7163  49.8687 0000671  38.8159 321.3067 14.22759034132060
PRSC-EO1                
1 62725U 25012A   26176.82892565  .00008253  00000+0  41231-3 0  9990
2 62725  97.4227 249.1196 0005471 215.7378 144.3491 15.17709091 79504
BIOMASS                 
1 63772U 25090A   26176.41992450  .00000661  00000+0  12495-3 0  9993
2 63772  98.0741   3.6181 0001429  94.8977 265.2391 14.67536962 61896
GOSAT-GW (IBUKI GW)     
1 64694U 25141A   26176.84919124  .00000533  00000+0  10236-3 0  9997
2 64694  98.0568 114.0254 0001421  84.3754 275.7613 14.67557629 53116
IONOSFERA-M 3           
1 64876U 25155A   26176.83324330  .00000036  00000+0  36009-4 0  9997
2 64876  98.6027 138.5206 0001512 142.3986 217.7298 14.21487831 47637
