OBJECT_NAME,OBJECT_ID,EPOCH,MEAN_MOTION,ECCENTRICITY,INCLINATION,RA_OF_ASC_NODE,ARG_OF_PERICENTER,MEAN_ANOMALY,EPHEMERIS_TYPE,CLASSIFICATION_TYPE,NORAD_CAT_ID,ELEMENT_SET_NO,REV_AT_EPOCH,BSTAR,MEAN_MOTION_DOT,MEAN_MOTION_DDOT
SAUDISAT 5A,2018-102A,2026-06-25T20:58:46.092576,15.28131747,.0011308,97.3070,238.2876,102.6895,257.5609,0,U,43831,999,41700,.23014E-3,.625E-4,0
SAUDISAT 5B,2018-102C,2026-06-25T21:23:49.150176,15.28384202,.0012019,97.3178,241.3901,104.5625,255.6949,0,U,43833,999,41712,.21579E-3,.5902E-4,0
GAOFEN-10R,2019-066A,2026-06-25T20:34:39.859392,14.83017335,.000711,98.0499,130.4998,102.6625,257.5383,0,U,44622,999,36366,.1446E-3,.1121E-4,0
CARTOSAT-3,2019-081A,2026-06-25T20:25:41.178720,15.19194152,.0013152,97.4305,238.5793,120.2395,240.0143,0,U,44804,999,36478,.22449E-3,.4666E-4,0
GAOFEN-12 01,2019-082A,2026-06-25T20:47:13.380576,14.80465016,.0001951,97.8101,183.0164,61.1768,298.9640,0,U,44819,999,35537,.56003E-4,.378E-5,0
CSG-1,2019-092A,2026-06-25T19:51:54.152640,14.82159930,.000145,97.8890,0.3051,89.9484,270.1895,0,U,44873,999,35275,.59839E-4,.424E-5,0
NEMO-HD,2020-061F,2026-06-25T19:27:03.183264,15.44758020,.0001867,97.1923,238.6765,74.9547,285.1909,0,U,46277,999,32331,.26916E-3,.12504E-3,0
SENTINEL-6A,2020-086A,2026-06-25T19:55:10.987392,12.80929977,.0007873,66.0407,117.1015,270.0530,89.9583,0,U,46984,999,26143,-.55379E-4,-.74E-6,0
CAS500-1,2021-022A,2026-06-25T21:12:19.700640,15.20165808,.0003519,97.3896,71.9607,252.2736,107.8115,0,U,47932,999,29208,.31579E-3,.6769E-4,0
GAOFEN-12 02,2021-026A,2026-06-25T21:04:29.339040,14.80302210,.0004367,97.9923,175.0231,188.8492,171.2644,0,U,48079,999,28304,.50866E-4,.335E-5,0
PLEIADES NEO 3,2021-034A,2026-06-25T19:54:52.320672,14.81668923,.0001451,97.8934,251.4721,87.8620,272.2759,0,U,48268,999,27893,.9061E-4,.661E-5,0
PLEIADES NEO 4,2021-073E,2026-06-25T19:06:13.224096,14.81678649,.0001377,97.8934,251.4352,85.9629,274.1741,0,U,49070,999,26264,.11725E-3,.871E-5,0
LANDSAT 9,2021-088A,2026-06-25T15:25:50.242368,14.57102508,.0001284,98.2278,246.7180,84.7783,275.3562,0,U,49260,999,25223,.79713E-4,.314E-5,0
CSG-2,2022-008A,2026-06-25T20:40:28.230240,14.82149418,.0001545,97.8891,0.3335,87.1093,273.0297,0,U,51444,999,23787,.67974E-4,.489E-5,0
GAOFEN-12 03,2022-069A,2026-06-25T20:12:25.655904,14.80045358,.0002287,97.8274,64.4935,93.8576,266.2898,0,U,52912,999,21589,.85487E-4,.597E-5,0
SWOT,2022-173A,2026-06-25T18:39:03.911040,14.00170582,.0000284,77.6103,23.7136,87.0945,273.0239,0,U,54754,999,18035,.25575E-4,.35E-6,0
GAOFEN-12 04,2023-123A,2026-06-25T20:35:08.413728,14.79741839,.0003982,97.9115,94.7506,89.7692,270.3976,0,U,57654,999,15391,.21489E-3,.1564E-4,0
PARS 1,2024-039Q,2026-06-25T20:37:26.677056,15.45895958,.0011516,97.4820,158.0528,86.2424,274.0142,0,U,59065,999,12998,.26835E-3,.12987E-3,0
RESURS-P 4,2024-061A,2026-06-25T21:13:04.346976,15.32177371,.0002741,97.2749,124.6312,116.8415,243.3107,0,U,59371,999,12509,.111E-3,.3372E-4,0
LEGION 1,2024-081A,2026-06-25T19:17:22.633152,15.16721062,.0008672,97.5019,254.5686,347.8154,12.2868,0,U,59625,999,11884,.20109E-3,.3878E-4,0
LEGION 2,2024-081B,2026-06-25T20:00:43.483968,15.16698552,.0010088,97.5019,254.6957,310.8345,49.2012,0,U,59626,999,11885,.22635E-3,.4372E-4,0
ALOS-4 (DAICHI-4),2024-123A,2026-06-25T09:50:01.047840,14.79472317,.0001583,97.9216,273.4677,95.5508,264.5885,0,U,60182,999,10709,.24389E-3,.177E-4,0
LEGION 3,2024-146A,2026-06-25T19:53:11.880672,15.16103207,.0008713,45.0026,344.2082,218.4647,141.5612,0,U,60452,999,10333,.23383E-3,.4322E-4,0
LEGION 4,2024-146B,2026-06-25T19:57:45.030816,15.16094132,.0012802,45.0017,76.1012,355.0939,4.9812,0,U,60453,999,10218,.22135E-3,.4078E-4,0
SENTINEL-2C,2024-157A,2026-06-25T16:53:46.224672,14.30819964,.0000944,98.5691,251.3657,87.6230,272.5061,0,U,60989,999,9420,.50302E-4,.88E-6,0
IONOSFERA-M 1,2024-199A,2026-06-25T20:15:10.958112,14.22755821,.0002148,98.7165,49.9243,99.0071,261.1350,0,U,61735,999,12893,.43444E-4,.53E-6,0
IONOSFERA-M 2,2024-199B,2026-06-25T21:04:32.242080,14.22759034,.0000671,98.7163,49.8687,38.8159,321.3067,0,U,61736,999,13206,.41678E-4,.49E-6,0
PRSC-EO1,2025-012A,2026-06-25T19:53:39.176160,15.17709091,.0005471,97.4227,249.1196,215.7378,144.3491,0,U,62725,999,7950,.41231E-3,.8253E-4,0
BIOMASS,2025-090A,2026-06-25T10:04:41.476800,14.67536962,.0001429,98.0741,3.6181,94.8977,265.2391,0,U,63772,999,6189,.12495E-3,.661E-5,0
GOSAT-GW (IBUKI GW),2025-141A,2026-06-25T20:22:50.123136,14.67557629,.0001421,98.0568,114.0254,84.3754,275.7613,0,U,64694,999,5311,.10236E-3,.533E-5,0
IONOSFERA-M 3,2025-155A,2026-06-25T19:59:52.221120,14.21487831,.0001512,98.6027,138.5206,142.3986,217.7298,0,U,64876,999,4763,.36009E-4,.36E-6,0
